[{"OBJECT_NAME":"STARLINK-31674","OBJECT_ID":"2024-073G","EPOCH":"2026-03-09T01:57:19.827936","MEAN_MOTION":15.27569136,"ECCENTRICITY":6.091e-5,"INCLINATION":43.0001,"RA_OF_ASC_NODE":321.3705,"ARG_OF_PERICENTER":273.7961,"MEAN_ANOMALY":86.2821,"EPHEMERIS_TYPE":0,"CLASSIFICATION_TYPE":"U","NORAD_CAT_ID":59517,"ELEMENT_SET_NO":999,"REV_AT_EPOCH":10608,"BSTAR":-7.2693201e-5,"MEAN_MOTION_DOT":-2.261e-5,"MEAN_MOTION_DDOT":0},{"OBJECT_NAME":"CZ-6A DEB","OBJECT_ID":"2022-151DE","EPOCH":"2026-03-09T09:45:43.657920","MEAN_MOTION":15.34292219,"ECCENTRICITY":0.00393756,"INCLINATION":99.0022,"RA_OF_ASC_NODE":218.5596,"ARG_OF_PERICENTER":192.6197,"MEAN_ANOMALY":167.4059,"EPHEMERIS_TYPE":0,"CLASSIFICATION_TYPE":"U","NORAD_CAT_ID":54359,"ELEMENT_SET_NO":999,"REV_AT_EPOCH":10560,"BSTAR":0.0065240017,"MEAN_MOTION_DOT":0.00228186,"MEAN_MOTION_DDOT":0}]
